QIANFAN-49              
1 62250U 24232P   26021.46467270  .00000041  00000+0  44944-4 0  9998
2 62250  89.0000  37.2231 0016132  81.7892 278.5088 13.50983860 73203
QIANFAN-50              
1 62251U 24232Q   26021.48942243  .00000045  00000+0  51060-4 0  9990
2 62251  89.0005  37.2309 0017800  82.8267 277.4908 13.50980799 73236
QIANFAN-51              
1 62252U 24232R   26021.47292233  .00000050  00000+0  59334-4 0  9995
2 62252  88.9999  37.2241 0015304  86.2572 274.0329 13.50983328 73226
QIANFAN-52              
1 62253U 24232S   26021.50178516  .00000043  00000+0  47146-4 0  9997
2 62253  88.9995  37.0932 0017266  79.2306 281.0788 13.50981319 73319
QIANFAN-53              
1 62254U 24232T   26021.48112323  .00000053  00000+0  63865-4 0  9996
2 62254  89.0003  37.2027 0016159  80.3338 279.9638 13.50984056 73273
QIANFAN-54              
1 62255U 24232U   26021.52224802  .00000050  00000+0  58277-4 0  9996
2 62255  88.9994  36.8734 0003947 106.5916 253.5669 13.50984521104785
QIANFAN-55              
1 62785U 25016A   26021.47413134  .00000201  00000+0  29228-3 0  9998
2 62785  88.9762  99.1105 0016285 227.9876 131.9889 13.50989303 52555
QIANFAN-56              
1 62786U 25016B   26021.49057655  .00000223  00000+0  32684-3 0  9997
2 62786  88.9734  98.9345 0014873 229.9325 130.0522 13.50991605 52608
